[{"OBJECT_NAME":"ICEYE-X31","OBJECT_ID":"2023-174AJ","EPOCH":"2026-03-09T23:06:20.433600","MEAN_MOTION":15.30950809,"ECCENTRICITY":0.00015021,"INCLINATION":97.3851,"RA_OF_ASC_NODE":144.9524,"ARG_OF_PERICENTER":332.6589,"MEAN_ANOMALY":27.4572,"EPHEMERIS_TYPE":0,"CLASSIFICATION_TYPE":"U","NORAD_CAT_ID":58288,"ELEMENT_SET_NO":999,"REV_AT_EPOCH":12955,"BSTAR":0.00066288467,"MEAN_MOTION_DOT":0.00019777,"MEAN_MOTION_DDOT":0},{"OBJECT_NAME":"STARLINK-36157","OBJECT_ID":"2025-286J","EPOCH":"2026-03-09T22:35:23.838432","MEAN_MOTION":15.30193765,"ECCENTRICITY":7.554e-5,"INCLINATION":53.1613,"RA_OF_ASC_NODE":357.398,"ARG_OF_PERICENTER":69.1163,"MEAN_ANOMALY":290.9919,"EPHEMERIS_TYPE":0,"CLASSIFICATION_TYPE":"U","NORAD_CAT_ID":66933,"ELEMENT_SET_NO":999,"REV_AT_EPOCH":1545,"BSTAR":0.0011434674,"MEAN_MOTION_DOT":0.00033654,"MEAN_MOTION_DDOT":0}]
